{
    "links": {
        "self": "http://www.neowsapp.com/rest/v1/neo/3695419?api_key=iIulBulltgU6a56xZRHN4H3l9WmuAYTsLGpBGhQ2"
    },
    "id": "3695419",
    "neo_reference_id": "3695419",
    "name": "(2014 UL191)",
    "designation": "2014 UL191",
    "nasa_jpl_url": "http://ssd.jpl.nasa.gov/sbdb.cgi?sstr=3695419",
    "absolute_magnitude_h": 24.4,
    "estimated_diameter": {
        "kilometers": {
            "estimated_diameter_min": 0.0350392641,
            "estimated_diameter_max": 0.0783501764
        },
        "meters": {
            "estimated_diameter_min": 35.0392641108,
            "estimated_diameter_max": 78.3501764334
        },
        "miles": {
            "estimated_diameter_min": 0.0217723826,
            "estimated_diameter_max": 0.0486845275
        },
        "feet": {
            "estimated_diameter_min": 114.9582192654,
            "estimated_diameter_max": 257.0543928497
        }
    },
    "is_potentially_hazardous_asteroid": false,
    "close_approach_data": [
        {
            "close_approach_date": "1926-04-12",
            "close_approach_date_full": "1926-Apr-12 03:20",
            "epoch_date_close_approach": -1379796000000,
            "relative_velocity": {
                "kilometers_per_second": "28.2812219455",
                "kilometers_per_hour": "101812.3990037561",
                "miles_per_hour": "63262.2653698617"
            },
            "miss_distance": {
                "astronomical": "0.2892951573",
                "lunar": "112.5358161897",
                "kilometers": "43277939.333394951",
                "miles": "26891664.5187182838"
            },
            "orbiting_body": "Earth"
        },
        {
            "close_approach_date": "1928-11-08",
            "close_approach_date_full": "1928-Nov-08 20:08",
            "epoch_date_close_approach": -1298433120000,
            "relative_velocity": {
                "kilometers_per_second": "27.1717249005",
                "kilometers_per_hour": "97818.2096418619",
                "miles_per_hour": "60780.4314299669"
            },
            "miss_distance": {
                "astronomical": "0.2502457105",
                "lunar": "97.3455813845",
                "kilometers": "37436225.267436635",
                "miles": "23261791.717570163"
            },
            "orbiting_body": "Earth"
        },
        {
            "close_approach_date": "2014-10-29",
            "close_approach_date_full": "2014-Oct-29 04:49",
            "epoch_date_close_approach": 1414558140000,
            "relative_velocity": {
                "kilometers_per_second": "19.9796883963",
                "kilometers_per_hour": "71926.878226747",
                "miles_per_hour": "44692.5649737251"
            },
            "miss_distance": {
                "astronomical": "0.0134483246",
                "lunar": "5.2313982694",
                "kilometers": "2011840.715228602",
                "miles": "1250099.8525426276"
            },
            "orbiting_body": "Earth"
        }
    ],
    "orbital_data": {
        "orbit_id": "5",
        "orbit_determination_date": "2017-04-06 08:37:41",
        "first_observation_date": "2014-10-30",
        "last_observation_date": "2014-11-03",
        "data_arc_in_days": 4,
        "observations_used": 96,
        "orbit_uncertainty": "8",
        "minimum_orbit_intersection": ".00958923",
        "jupiter_tisserand_invariant": "3.845",
        "epoch_osculation": "2456961.5",
        "eccentricity": ".6504351017064841",
        "semi_major_axis": "1.756201278324279",
        "inclination": "2.068892247580559",
        "ascending_node_longitude": "232.5871481878306",
        "orbital_period": "850.0801207891774",
        "perihelion_distance": ".6139063212403691",
        "perihelion_argument": "74.1368789380728",
        "aphelion_distance": "2.898496235408188",
        "perihelion_time": "2456911.565052419705",
        "mean_anomaly": "21.146925671215",
        "mean_motion": ".4234894937500617",
        "equinox": "J2000",
        "orbit_class": {
            "orbit_class_type": "APO",
            "orbit_class_description": "Near-Earth asteroid orbits which cross the Earth’s orbit similar to that of 1862 Apollo",
            "orbit_class_range": "a (semi-major axis) > 1.0 AU; q (perihelion) < 1.017 AU"
        }
    },
    "is_sentry_object": false
}